start=new Date('2022-03-21T00:00:00.000Z').valueOf();
sats=[{"MEAN_MOTION_DOT":"0.00002308","EPOCH":"2022-03-20T20:06:39.359520","RCS_SIZE":"LARGE","PERIOD":"95.592","LAUNCH_DATE":"2020-06-13","GP_ID":"199265997","TIME_SYSTEM":"UTC","SITE":"AFETR","COUNTRY_CODE":"US","REF_FRAME":"TEME","RA_OF_ASC_NODE":"245.2660","MEAN_ELEMENT_THEORY":"SGP4","REV_AT_EPOCH":"9795","SEMIMAJOR_AXIS":"6925.320","MEAN_MOTION":"15.06409410","NORAD_CAT_ID":"45768","MEAN_MOTION_DDOT":"0.0000000000000","BSTAR":"0.00017375000000","OBJECT_TYPE":"PAYLOAD","CLASSIFICATION_TYPE":"U","APOAPSIS":"548.192","TLE_LINE1":"1 45768U 20038AQ  22079.83795555  .00002308  00000-0  17375-3 0  9999","PERIAPSIS":"546.177","ARG_OF_PERICENTER":"65.3511","ECCENTRICITY":"0.00014550","FILE":"3367488","TLE_LINE2":"2 45768  53.0525 245.2660 0001455  65.3511 294.7629 15.06409410 97952","MEAN_ANOMALY":"294.7629","INCLINATION":"53.0525","DECAY_DATE":null,"OBJECT_NAME":"STARLINK-1521","CENTER_NAME":"EARTH","EPHEMERIS_TYPE":"0","OBJECT_ID":"2020-038AQ","ELEMENT_SET_NO":"999"},{"CENTER_NAME":"EARTH","ELEMENT_SET_NO":"999","EPHEMERIS_TYPE":"0","OBJECT_ID":"2020-038AR","TLE_LINE2":"2 45769  53.0539 265.1568 0001638  56.6124 303.5021 15.06395257 97679","FILE":"3367488","ECCENTRICITY":"0.00016380","OBJECT_NAME":"STARLINK-1459","DECAY_DATE":null,"MEAN_ANOMALY":"303.5021","INCLINATION":"53.0539","CLASSIFICATION_TYPE":"U","ARG_OF_PERICENTER":"56.6124","PERIAPSIS":"546.094","TLE_LINE1":"1 45769U 20038AR  22079.86192145  .00000881  00000-0  78061-4 0  9993","APOAPSIS":"548.362","MEAN_MOTION_DDOT":"0.0000000000000","MEAN_MOTION":"15.06395257","NORAD_CAT_ID":"45769","OBJECT_TYPE":"PAYLOAD","BSTAR":"0.00007806100000","SEMIMAJOR_AXIS":"6925.363","COUNTRY_CODE":"US","REV_AT_EPOCH":"9767","RA_OF_ASC_NODE":"265.1568","MEAN_ELEMENT_THEORY":"SGP4","REF_FRAME":"TEME","LAUNCH_DATE":"2020-06-13","SITE":"AFETR","TIME_SYSTEM":"UTC","GP_ID":"199265748","RCS_SIZE":"LARGE","EPOCH":"2022-03-20T20:41:10.013280","MEAN_MOTION_DOT":"0.00000881","PERIOD":"95.592"},{"SITE":"AFETR","TIME_SYSTEM":"UTC","GP_ID":"199264496","LAUNCH_DATE":"2020-06-13","PERIOD":"95.592","RCS_SIZE":"LARGE","EPOCH":"2022-03-20T20:45:06.537600","MEAN_MOTION_DOT":"0.00003085","SEMIMAJOR_AXIS":"6925.331","REV_AT_EPOCH":"9822","RA_OF_ASC_NODE":"225.1282","MEAN_ELEMENT_THEORY":"SGP4","REF_FRAME":"TEME","COUNTRY_CODE":"US","ARG_OF_PERICENTER":"66.4190","PERIAPSIS":"546.210","TLE_LINE1":"1 45770U 20038AS  22079.86465900  .00003085  00000-0  22586-3 0  9996","APOAPSIS":"548.181","CLASSIFICATION_TYPE":"U","OBJECT_TYPE":"PAYLOAD","BSTAR":"0.00022586000000","MEAN_MOTION_DDOT":"0.0000000000000","MEAN_MOTION":"15.06405789","NORAD_CAT_ID":"45770","ELEMENT_SET_NO":"999","EPHEMERIS_TYPE":"0","OBJECT_ID":"2020-038AS","CENTER_NAME":"EARTH","OBJECT_NAME":"STARLINK-1462","DECAY_DATE":null,"MEAN_ANOMALY":"293.6948","INCLINATION":"53.0526","TLE_LINE2":"2 45770  53.0526 225.1282 0001423  66.4190 293.6948 15.06405789 98221","ECCENTRICITY":"0.00014230","FILE":"3367488"},{"MEAN_MOTION_DDOT":"0.0000000000000","NORAD_CAT_ID":"45771","MEAN_MOTION":"15.06382611","OBJECT_TYPE":"PAYLOAD","BSTAR":"0.00024258000000","CLASSIFICATION_TYPE":"U","ARG_OF_PERICENTER":"79.7590","APOAPSIS":"548.120","TLE_LINE1":"1 45771U 20038AT  22079.79188705  .00003332  00000-0  24258-3 0  9997","PERIAPSIS":"546.414","TLE_LINE2":"2 45771  53.0544 225.4707 0001232  79.7590 280.3538 15.06382611 98211","FILE":"3367488","ECCENTRICITY":"0.00012320","DECAY_DATE":null,"OBJECT_NAME":"STARLINK-1463","MEAN_ANOMALY":"280.3538","INCLINATION":"53.0544","CENTER_NAME":"EARTH","ELEMENT_SET_NO":"999","EPHEMERIS_TYPE":"0","OBJECT_ID":"2020-038AT","RCS_SIZE":"LARGE","MEAN_MOTION_DOT":"0.00003332","EPOCH":"2022-03-20T19:00:19.041120","PERIOD":"95.593","LAUNCH_DATE":"2020-06-13","TIME_SYSTEM":"UTC","SITE":"AFETR","GP_ID":"199264746","COUNTRY_CODE":"US","REV_AT_EPOCH":"9821","REF_FRAME":"TEME","MEAN_ELEMENT_THEORY":"SGP4","RA_OF_ASC_NODE":"225.4707","SEMIMAJOR_AXIS":"6925.402"},{"CENTER_NAME":"EARTH","ELEMENT_SET_NO":"999","OBJECT_ID":"2020-038AU","EPHEMERIS_TYPE":"0","TLE_LINE2":"2 45772  53.0532 225.2096 0001465  76.6975 283.4177 15.06393733 98231","ECCENTRICITY":"0.00014650","FILE":"3367488","DECAY_DATE":null,"OBJECT_NAME":"STARLINK-1470","INCLINATION":"53.0532","MEAN_ANOMALY":"283.4177","CLASSIFICATION_TYPE":"U","ARG_OF_PERICENTER":"76.6975","APOAPSIS":"548.247","PERIAPSIS":"546.218","TLE_LINE1":"1 45772U 20038AU  22079.84717976  .00001744  00000-0  13599-3 0  9993","MEAN_MOTION_DDOT":"0.0000000000000","NORAD_CAT_ID":"45772","MEAN_MOTION":"15.06393733","OBJECT_TYPE":"PAYLOAD","BSTAR":"0.00013599000000","SEMIMAJOR_AXIS":"6925.368","COUNTRY_CODE":"US","REV_AT_EPOCH":"9823","REF_FRAME":"TEME","RA_OF_ASC_NODE":"225.2096","MEAN_ELEMENT_THEORY":"SGP4","LAUNCH_DATE":"2020-06-13","SITE":"AFETR","TIME_SYSTEM":"UTC","GP_ID":"199265498","RCS_SIZE":"LARGE","EPOCH":"2022-03-20T20:19:56.331264","MEAN_MOTION_DOT":"0.00001744","PERIOD":"95.593"},{"PERIOD":"95.592","RCS_SIZE":"LARGE","MEAN_MOTION_DOT":"0.00001311","EPOCH":"2022-03-20T18:33:46.140480","TIME_SYSTEM":"UTC","SITE":"AFETR","GP_ID":"199266248","LAUNCH_DATE":"2020-06-13","REV_AT_EPOCH":"9822","REF_FRAME":"TEME","MEAN_ELEMENT_THEORY":"SGP4","RA_OF_ASC_NODE":"225.5496","COUNTRY_CODE":"US","SEMIMAJOR_AXIS":"6925.337","OBJECT_TYPE":"PAYLOAD","BSTAR":"0.00010685000000","MEAN_MOTION_DDOT":"0.0000000000000","MEAN_MOTION":"15.06403680","NORAD_CAT_ID":"45773","ARG_OF_PERICENTER":"67.2239","APOAPSIS":"548.249","PERIAPSIS":"546.156","TLE_LINE1":"1 45773U 20038AV  22079.77345070  .00001311  00000-0  10685-3 0  9991","CLASSIFICATION_TYPE":"U","DECAY_DATE":null,"OBJECT_NAME":"STARLINK-1482","MEAN_ANOMALY":"292.8909","INCLINATION":"53.0549","TLE_LINE2":"2 45773  53.0549 225.5496 0001511  67.2239 292.8909 15.06403680 98227","FILE":"3367488","ECCENTRICITY":"0.00015110","ELEMENT_SET_NO":"999","EPHEMERIS_TYPE":"0","OBJECT_ID":"2020-038AV","CENTER_NAME":"EARTH"},{"CLASSIFICATION_TYPE":"U","TLE_LINE1":"1 45774U 20038AW  22079.74397168  .00008692  00000-0  60136-3 0  9999","PERIAPSIS":"546.117","APOAPSIS":"548.192","ARG_OF_PERICENTER":"64.3920","MEAN_MOTION":"15.06419234","NORAD_CAT_ID":"45774","MEAN_MOTION_DDOT":"0.0000000000000","BSTAR":"0.00060136000000","OBJECT_TYPE":"PAYLOAD","CENTER_NAME":"EARTH","EPHEMERIS_TYPE":"0","OBJECT_ID":"2020-038AW","ELEMENT_SET_NO":"999","FILE":"3367488","ECCENTRICITY":"0.00014980","TLE_LINE2":"2 45774  53.0548 225.6753 0001498  64.3920 295.7224 15.06419234 98216","MEAN_ANOMALY":"295.7224","INCLINATION":"53.0548","OBJECT_NAME":"STARLINK-1485","DECAY_DATE":null,"LAUNCH_DATE":"2020-06-13","GP_ID":"199264996","TIME_SYSTEM":"UTC","SITE":"AFETR","EPOCH":"2022-03-20T17:51:19.153152","MEAN_MOTION_DOT":"0.00008692","RCS_SIZE":"LARGE","PERIOD":"95.591","SEMIMAJOR_AXIS":"6925.290","COUNTRY_CODE":"US","MEAN_ELEMENT_THEORY":"SGP4","RA_OF_ASC_NODE":"225.6753","REF_FRAME":"TEME","REV_AT_EPOCH":"9821"},{"FILE":"3367488","ECCENTRICITY":"0.00013530","TLE_LINE2":"2 45775  53.0535 225.9613 0001353  78.4175 281.6966 15.06400606 98219","MEAN_ANOMALY":"281.6966","INCLINATION":"53.0535","DECAY_DATE":null,"OBJECT_NAME":"STARLINK-1488","CENTER_NAME":"EARTH","EPHEMERIS_TYPE":"0","OBJECT_ID":"2020-038AX","ELEMENT_SET_NO":"999","MEAN_MOTION":"15.06400606","NORAD_CAT_ID":"45775","MEAN_MOTION_DDOT":"0.0000000000000","BSTAR":"0.00014185000000","OBJECT_TYPE":"PAYLOAD","CLASSIFICATION_TYPE":"U","APOAPSIS":"548.149","PERIAPSIS":"546.275","TLE_LINE1":"1 45775U 20038AX  22079.68130706  .00001832  00000-0  14185-3 0  9998","ARG_OF_PERICENTER":"78.4175","COUNTRY_CODE":"US","REF_FRAME":"TEME","RA_OF_ASC_NODE":"225.9613","MEAN_ELEMENT_THEORY":"SGP4","REV_AT_EPOCH":"9821","SEMIMAJOR_AXIS":"6925.347","EPOCH":"2022-03-20T16:21:04.929984","MEAN_MOTION_DOT":"0.00001832","RCS_SIZE":"LARGE","PERIOD":"95.592","LAUNCH_DATE":"2020-06-13","GP_ID":"199265246","SITE":"AFETR","TIME_SYSTEM":"UTC"},{"BSTAR":"0.00002064700000","OBJECT_TYPE":"PAYLOAD","MEAN_MOTION":"15.06406125","NORAD_CAT_ID":"45776","MEAN_MOTION_DDOT":"0.0000000000000","PERIAPSIS":"546.096","TLE_LINE1":"1 45776U 20038AY  22079.82137328  .00000026  00000-0  20647-4 0  9997","APOAPSIS":"548.293","ARG_OF_PERICENTER":"63.5835","CLASSIFICATION_TYPE":"U","MEAN_ANOMALY":"296.5316","INCLINATION":"53.0527","OBJECT_NAME":"STARLINK-1489","DECAY_DATE":null,"ECCENTRICITY":"0.00015860","FILE":"3367488","TLE_LINE2":"2 45776  53.0527 225.3186 0001586  63.5835 296.5316 15.06406125 98234","EPHEMERIS_TYPE":"0","OBJECT_ID":"2020-038AY","ELEMENT_SET_NO":"999","CENTER_NAME":"EARTH","PERIOD":"95.592","MEAN_MOTION_DOT":"0.00000026","EPOCH":"2022-03-20T19:42:46.651392","RCS_SIZE":"LARGE","GP_ID":"199265998","TIME_SYSTEM":"UTC","SITE":"AFETR","LAUNCH_DATE":"2020-06-13","MEAN_ELEMENT_THEORY":"SGP4","RA_OF_ASC_NODE":"225.3186","REF_FRAME":"TEME","REV_AT_EPOCH":"9823","COUNTRY_CODE":"US","SEMIMAJOR_AXIS":"6925.330"},{"MEAN_MOTION_DDOT":"0.0000000000000","MEAN_MOTION":"15.06401242","NORAD_CAT_ID":"45777","OBJECT_TYPE":"PAYLOAD","BSTAR":"0.00003564100000","CLASSIFICATION_TYPE":"U","ARG_OF_PERICENTER":"66.4975","TLE_LINE1":"1 45777U 20038AZ  22079.81768844  .00000249  00000-0  35641-4 0  9997","PERIAPSIS":"546.170","APOAPSIS":"548.250","TLE_LINE2":"2 45777  53.0541 225.3553 0001502  66.4975 293.6172 15.06401242 98237","ECCENTRICITY":"0.00015020","FILE":"3367488","OBJECT_NAME":"STARLINK-1490","DECAY_DATE":null,"MEAN_ANOMALY":"293.6172","INCLINATION":"53.0541","CENTER_NAME":"EARTH","ELEMENT_SET_NO":"999","EPHEMERIS_TYPE":"0","OBJECT_ID":"2020-038AZ","RCS_SIZE":"LARGE","EPOCH":"2022-03-20T19:37:28.281216","MEAN_MOTION_DOT":"0.00000249","PERIOD":"95.592","LAUNCH_DATE":"2020-06-13","TIME_SYSTEM":"UTC","SITE":"AFETR","GP_ID":"199265749","COUNTRY_CODE":"US","REV_AT_EPOCH":"9823","RA_OF_ASC_NODE":"225.3553","MEAN_ELEMENT_THEORY":"SGP4","REF_FRAME":"TEME","SEMIMAJOR_AXIS":"6925.345"}];
